[{"OBJECT_NAME":"NUSAT-41 (C PAYNE-G)","OBJECT_ID":"2023-084N","EPOCH":"2026-03-09T21:55:54.837696","MEAN_MOTION":15.29680045,"ECCENTRICITY":0.00062175,"INCLINATION":97.5351,"RA_OF_ASC_NODE":204.1011,"ARG_OF_PERICENTER":322.2064,"MEAN_ANOMALY":37.8738,"EPHEMERIS_TYPE":0,"CLASSIFICATION_TYPE":"U","NORAD_CAT_ID":56944,"ELEMENT_SET_NO":999,"REV_AT_EPOCH":15260,"BSTAR":0.00059912824,"MEAN_MOTION_DOT":0.0001718,"MEAN_MOTION_DDOT":0},{"OBJECT_NAME":"STARLINK-33900","OBJECT_ID":"2025-091AB","EPOCH":"2026-03-09T07:08:57.096384","MEAN_MOTION":15.27579737,"ECCENTRICITY":0.00014612,"INCLINATION":43.0018,"RA_OF_ASC_NODE":54.6126,"ARG_OF_PERICENTER":258.8876,"MEAN_ANOMALY":101.1811,"EPHEMERIS_TYPE":0,"CLASSIFICATION_TYPE":"U","NORAD_CAT_ID":63800,"ELEMENT_SET_NO":999,"REV_AT_EPOCH":4895,"BSTAR":0.0012640046,"MEAN_MOTION_DOT":0.00034684,"MEAN_MOTION_DDOT":0}]
